{"type": "Feature", "properties": {"name": "Karnataka"}, "geometry": {"type": "MultiPolygon", "coordinates": [[[[74.0848741, 14.9002456], [74.1219074, 14.8423502], [74.122932, 14.8045193], [74.0931487, 14.8040318], [74.1191669, 14.7743826], [74.2046803, 14.7187307], [74.2337769, 14.7480638], [74.2621493, 14.7194259], [74.3098792, 14.521473], [74.3596584, 14.5173497], [74.5146713, 13.9874907], [74.60706, 13.8685802], [74.6766579, 13.5799342], [74.690541, 13.3487574], [74.8640682, 12.7600633], [75.0057542, 12.7926243], [74.9841118, 12.7356734], [75.0526929, 12.7203702], [75.0470706, 12.6687814], [75.0864884, 12.674549], [75.0857674, 12.7035965], [75.1517215, 12.6828137], [75.1407981, 12.6424949], [75.2005577, 12.6288643], [75.2201486, 12.5692976], [75.2738571, 12.6188973], [75.327115, 12.5920726], [75.2742219, 12.5715072], [75.2732563, 12.5357546], [75.3367924, 12.4638365], [75.4161283, 12.5000289], [75.4236746, 12.4673355], [75.3654385, 12.4578232], [75.3715646, 12.4000823], [75.4217756, 12.3715581], [75.4155084, 12.2882499], [75.4848578, 12.2899964], [75.5322504, 12.2014699], [75.5916184, 12.1479101], [75.6381011, 12.1471444], [75.660916, 12.0995375], [75.701487, 12.1093617], [75.7155633, 12.0703147], [75.8031106, 12.0783302], [75.8015013, 12.0370541], [75.8691788, 11.9534124], [76.0036262, 11.9312137], [76.1125536, 11.9786826], [76.1201314, 11.8506066], [76.1918737, 11.8710337], [76.2218756, 11.8101411], [76.2804932, 11.8115352], [76.3403408, 11.7382109], [76.4146881, 11.757652], [76.4157324, 11.672535], [76.4609129, 11.662387], [76.5139882, 11.7056491], [76.5630495, 11.6204632], [76.6174629, 11.6079752], [76.8538284, 11.5971021], [76.8350744, 11.6553887], [76.9071078, 11.7955248], [76.9683265, 11.7772922], [76.982038, 11.8118238], [77.0287299, 11.8053967], [77.0343303, 11.7703812], [77.066946, 11.788026], [77.057333, 11.7666945], [77.1157837, 11.7213897], [77.1109342, 11.7736476], [77.250216, 11.812895], [77.4281323, 11.7609806], [77.4947047, 11.9438082], [77.6755592, 11.9520457], [77.7787651, 12.1084019], [77.7334868, 12.177071], [77.4724375, 12.2078956], [77.4790463, 12.269874], [77.5517462, 12.2917279], [77.6168632, 12.368257], [77.6350296, 12.4874081], [77.5839531, 12.4785472], [77.616218, 12.5093024], [77.5803081, 12.5515804], [77.5988817, 12.6671789], [77.7410016, 12.6737335], [77.8090335, 12.7968339], [77.7925886, 12.843407], [77.8367365, 12.8704003], [77.9294394, 12.8909806], [77.9205678, 12.8275632], [77.9528558, 12.8568781], [78.0096947, 12.8056928], [78.0229979, 12.8565505], [78.0540859, 12.8535613], [78.1339696, 12.7821215], [78.2313763, 12.7621184], [78.2531261, 12.8617616], [78.3123708, 12.8583517], [78.3557796, 12.9406777], [78.3896398, 12.9064621], [78.4449148, 12.9120465], [78.4647471, 12.8666985], [78.4665549, 12.9053118], [78.411119, 12.9454457], [78.4353661, 12.98113], [78.4675419, 12.9750139], [78.4622741, 13.0433692], [78.5385775, 13.1056659], [78.5175919, 13.1324148], [78.579905, 13.167414], [78.5501969, 13.200225], [78.5875761, 13.2719428], [78.5654962, 13.3117768], [78.5319686, 13.2668678], [78.4834099, 13.321194], [78.37713, 13.332062], [78.4086835, 13.3428251], [78.3650494, 13.3619699], [78.4019887, 13.5879174], [78.2371182, 13.5988452], [78.193121, 13.5643932], [78.204123, 13.6283986], [78.1562752, 13.6584936], [78.0872938, 13.6434484], [78.0694699, 13.6976523], [78.1134152, 13.692503], [78.0917859, 13.7423032], [78.1265902, 13.7865705], [78.1235862, 13.8451845], [78.0489564, 13.8962228], [78.0459738, 13.8621638], [78.0008912, 13.8732257], [77.9529547, 13.8271831], [77.9828882, 13.9577246], [77.9267335, 13.9053877], [77.895813, 13.9410231], [77.8265476, 13.9447716], [77.8370404, 13.8699343], [77.7193773, 13.8002303], [77.717371, 13.7410318], [77.7033806, 13.7697941], [77.6714086, 13.760478], [77.6801741, 13.786758], [77.6211655, 13.7684602], [77.6278818, 13.734591], [77.5997937, 13.7506196], [77.5604081, 13.7224803], [77.5280285, 13.7539231], [77.5249815, 13.6911583], [77.4848985, 13.7147883], [77.4918508, 13.6900638], [77.4553004, 13.6822469], [77.4645352, 13.8080758], [77.4226713, 13.7989279], [77.4324936, 13.8432365], [77.3256397, 13.833017], [77.3110699, 13.8665178], [77.2568464, 13.8465804], [77.2358393, 13.9040963], [77.2004342, 13.8631013], [77.1847272, 13.925143], [77.1684623, 13.8645179], [77.1281862, 13.8565181], [77.1686768, 13.8295375], [77.1729469, 13.7620828], [77.0643496, 13.7439602], [77.0244276, 13.7792244], [76.9986892, 13.7453046], [76.9781327, 13.8269539], [77.0414972, 13.9334528], [76.9311189, 14.0302436], [76.9749999, 14.0810327], [76.8860149, 14.1383651], [76.8945336, 14.1678789], [76.9474911, 14.1980754], [77.0221424, 14.177397], [77.0315623, 14.0569301], [77.1268344, 14.0471468], [77.1409321, 14.0038246], [77.3220992, 14.0300562], [77.371602, 13.9531641], [77.3477196, 13.916031], [77.3989461, 13.8884859], [77.4346447, 13.9147605], [77.4119854, 13.945917], [77.4388718, 13.9755077], [77.381494, 13.9761949], [77.3902917, 14.0166077], [77.332313, 14.0306807], [77.4013853, 14.1198247], [77.3474192, 14.103468], [77.3519897, 14.1311031], [77.393682, 14.1742556], [77.5036526, 14.1572785], [77.5035238, 14.2651006], [77.3930383, 14.3358064], [77.3765588, 14.3056596], [77.4197531, 14.2116172], [77.3870301, 14.1998851], [77.3638434, 14.2758136], [77.2835398, 14.2828909], [77.2866082, 14.3402345], [77.2377491, 14.3174277], [77.157197, 14.3421263], [77.1153116, 14.2921234], [77.1096253, 14.2207278], [76.9401526, 14.2445427], [76.9247675, 14.273658], [76.9565409, 14.2943119], [76.8849635, 14.3473651], [76.8852854, 14.3920973], [76.9156694, 14.4207154], [76.9425559, 14.400307], [76.9747853, 14.4853005], [76.8680119, 14.4739723], [76.7650366, 14.602044], [76.8035531, 14.7424559], [76.78231, 14.7860863], [76.8542683, 14.8098404], [76.8695569, 14.937767], [76.8672502, 14.9695166], [76.7666888, 14.9745434], [76.7767525, 15.0784118], [76.8360937, 15.0796135], [76.8772817, 15.0306494], [77.0495868, 15.0330844], [77.0442652, 15.0098523], [77.0825715, 15.0060658], [77.1690362, 15.1713106], [77.1250051, 15.2269092], [77.167148, 15.2683552], [77.1183103, 15.2948085], [77.1133536, 15.33382], [77.0621127, 15.3279015], [77.0310688, 15.4330801], [76.9746861, 15.4979555], [77.0297813, 15.5021529], [77.0304036, 15.6345056], [77.0831895, 15.6589803], [77.1213841, 15.6309927], [77.1289372, 15.6658501], [77.0490932, 15.7302596], [77.0651865, 15.8278885], [77.0325494, 15.8569739], [77.0860648, 15.9196513], [77.1849632, 15.9567697], [77.5133402, 15.9280671], [77.4923949, 16.0857707], [77.5139191, 16.1077628], [77.4862978, 16.1646846], [77.5157501, 16.2254048], [77.4900118, 16.2552837], [77.5681765, 16.3045801], [77.5976293, 16.2932653], [77.5891895, 16.3441127], [77.4910668, 16.3849805], [77.3482112, 16.3846153], [77.236585, 16.4699909], [77.3694264, 16.4881829], [77.4173902, 16.5208487], [77.3922218, 16.569654], [77.4672468, 16.5991509], [77.4724645, 16.6520639], [77.4432929, 16.63831], [77.4184263, 16.6686017], [77.468687, 16.6843811], [77.4733268, 16.716152], [77.425547, 16.7225161], [77.4381988, 16.789988], [77.4791435, 16.8009082], [77.4529551, 16.9145927], [77.5031982, 17.0137339], [77.4620499, 17.1104337], [77.3660536, 17.1547739], [77.4019289, 17.2104587], [77.3788022, 17.2220507], [77.4580297, 17.2800071], [77.4360704, 17.2918573], [77.4528803, 17.3739303], [77.5284624, 17.3701379], [77.5133123, 17.4294861], [77.5760829, 17.430537], [77.6556826, 17.5049682], [77.6844212, 17.4745359], [77.6916687, 17.4968306], [77.5941773, 17.5644629], [77.5491474, 17.5507532], [77.5310478, 17.5740337], [77.5064311, 17.5413006], [77.4445196, 17.5835026], [77.4529389, 17.6948351], [77.5703231, 17.7418117], [77.5059815, 17.7863871], [77.6559078, 17.9684465], [77.5475089, 18.0556508], [77.6014625, 18.0932764], [77.5630683, 18.1954571], [77.6034266, 18.2793438], [77.5131713, 18.3101532], [77.4654124, 18.2634144], [77.4376829, 18.3102948], [77.3657721, 18.3089444], [77.41414, 18.3922787], [77.3210906, 18.4591753], [77.2401978, 18.4133307], [77.2485549, 18.374435], [77.1987557, 18.3145524], [77.2135787, 18.2807959], [77.1747463, 18.284758], [77.1511832, 18.2167321], [77.0969428, 18.1965518], [77.1120397, 18.1569213], [76.9513324, 18.1883085], [76.9179532, 18.1241137], [76.9653511, 18.0988631], [76.953437, 18.041985], [76.9056888, 18.0098573], [76.9188657, 17.9164193], [76.8055981, 17.8708943], [76.7399633, 17.8995418], [76.7384463, 17.8560369], [76.7906956, 17.8250983], [76.7142707, 17.7813196], [76.7117638, 17.6945004], [76.6647248, 17.6874487], [76.6133934, 17.7710422], [76.5802543, 17.7055857], [76.571821, 17.7612916], [76.524352, 17.7598986], [76.4873504, 17.6582036], [76.4277, 17.6440639], [76.4184522, 17.6045526], [76.3306474, 17.5981303], [76.3660097, 17.5247284], [76.3446807, 17.4955067], [76.374464, 17.4938695], [76.3308191, 17.4708651], [76.3340163, 17.4353704], [76.3709235, 17.4369467], [76.3632631, 17.3786547], [76.4089036, 17.3712209], [76.3807726, 17.3162471], [76.3422346, 17.3563526], [76.2767029, 17.335584], [76.2443018, 17.3804772], [76.1722898, 17.3551033], [76.1752939, 17.3027059], [76.1165643, 17.3717944], [76.0788309, 17.3331772], [76.0141777, 17.3536745], [75.9315896, 17.3219672], [75.8911032, 17.3558699], [75.8846485, 17.418675], [75.8594505, 17.3853789], [75.8232156, 17.4218608], [75.7961731, 17.3689588], [75.7329335, 17.4207886], [75.6868675, 17.4121836], [75.633316, 17.4776398], [75.6142187, 17.3947293], [75.5752945, 17.3835489], [75.6036615, 17.3063115], [75.657386, 17.270689], [75.6622922, 17.2082474], [75.6267464, 17.1627507], [75.6738885, 17.1136929], [75.6783486, 17.0628476], [75.6410622, 17.0388547], [75.6691003, 17.038349], [75.6719113, 16.9630942], [75.5675645, 17.010308], [75.5665514, 16.9676916], [75.4892719, 16.9452516], [75.4663753, 16.9891588], [75.2831054, 16.9552401], [75.2844434, 16.8803109], [75.2144196, 16.8419542], [75.1355859, 16.8749712], [75.0907463, 16.950638], [75.0246977, 16.9277986], [74.932144, 16.9450203], [74.9628692, 16.8794189], [74.9030558, 16.8624086], [74.9222821, 16.771485], [74.6914744, 16.7164393], [74.651056, 16.6352327], [74.6882678, 16.6094003], [74.6417493, 16.611336], [74.5684331, 16.5544455], [74.5442679, 16.6340711], [74.4586372, 16.648774], [74.4678444, 16.6055265], [74.3984864, 16.5824328], [74.3831635, 16.526953], [74.3234376, 16.5565926], [74.3081098, 16.5014165], [74.2642712, 16.5393559], [74.278387, 16.5026712], [74.2488528, 16.4958081], [74.2644632, 16.4766297], [74.2925495, 16.5033902], [74.2916699, 16.4596813], [74.3342887, 16.4533057], [74.3380551, 16.401254], [74.3651662, 16.4031596], [74.3572335, 16.3655732], [74.3211066, 16.3798456], [74.3272814, 16.2689993], [74.3469059, 16.2926378], [74.4117356, 16.2821292], [74.4967658, 16.2319805], [74.506578, 16.1891636], [74.4829394, 16.0883655], [74.42808, 16.111558], [74.3616243, 16.0540227], [74.4648351, 16.0421033], [74.3871784, 15.9025217], [74.4069614, 15.8542117], [74.3657578, 15.8928272], [74.3392966, 15.8537657], [74.3827587, 15.8478609], [74.3689277, 15.78648], [74.2562264, 15.7435458], [74.2361559, 15.7845789], [74.2087166, 15.7801827], [74.0887069, 15.6710152], [74.2504549, 15.6578336], [74.2448973, 15.5670273], [74.2823624, 15.532608], [74.2507124, 15.4912352], [74.3361139, 15.2959831], [74.2507124, 15.2590554], [74.3181629, 15.1839554], [74.283328, 15.1450023], [74.2967605, 15.0409592], [74.2538237, 14.9612039], [74.201188, 14.9264572], [74.1627359, 14.9582187], [74.1614485, 14.9124822], [74.0848741, 14.9002456]]], [[[74.265697, 15.8273185], [74.2704298, 15.7944838], [74.314429, 15.7906545], [74.265697, 15.8273185]]], [[[77.268393, 18.4546658], [77.3002553, 18.4760136], [77.268393, 18.4546658]]]]}}